satname,norad_id,inclination_deg,eccentricity,mean_motion_rev_per_day,perigee_km,apogee_km,l1,l2
STARLINK-1008,44714,53.1568,0.0001324,15.31029295,471.833005653637,473.6471178995953,1 44714U 19074B   26030.58335647 -.00001982  00000+0 -53306-4 0  9995,2 44714  53.1568 355.9931 0001324  94.3357 264.9396 15.31029295  5782
STARLINK-1012,44718,53.1587,0.0001675,15.30186329,474.1079455561303,476.4038321738999,1 44718U 19074F   26030.58335647 -.00003981  00000+0 -12238-3 0  9998,2 44718  53.1587 355.8086 0001675  90.7872 131.5965 15.30186329  5836
STARLINK-1017,44723,53.0449,0.0002106,15.21213506,500.7301304221428,503.62811957399117,1 44723U 19074L   26030.27135950  .00073704  00000+0  32432-2 0  9990,2 44723  53.0449 348.2684 0002106  89.4520 270.6716 15.21213506343116
STARLINK-1019,44724,53.0506,0.001102,15.69643299,352.4922937069823,367.3429661113014,1 44724U 19074M   26030.58335647  .00058695  00000+0  48570-3 0  9993,2 44724  53.0506 326.7271 0011020  67.5624  81.2062 15.69643299  6003
STARLINK-1020,44725,53.0565,0.000151,15.0637482,546.2429928011434,548.3344713722336,1 44725U 19074N   26030.40252164  .00003263  00000+0  23801-3 0  9998,2 44725  53.0565  18.4967 0001510  91.3636 268.7526 15.06374820342694
STARLINK-1031,44736,53.0494,0.0007324,15.74998367,339.71206948516465,349.5595871240648,1 44736U 19074Z   26030.58335647  .00226980  00000+0  14588-2 0  9991,2 44736  53.0494 312.0302 0007324  99.6069  37.4739 15.74998367  6005
STARLINK-1036,44741,53.0551,0.0003407,15.47679872,421.1978401572842,425.83248594118504,1 44741U 19074AE  26030.58335647  .00117557  00000+0  22119-2 0  9995,2 44741  53.0551  11.8930 0003407  86.0806  96.7438 15.47679872  5845
STARLINK-1039,44744,53.0509,0.0005221,15.18400906,507.0763288234475,514.2696242009215,1 44744U 19074AH  26030.27986797  .00060456  00000+0  28938-2 0  9992,2 44744  53.0509  31.1850 0005221  61.9996 298.1526 15.18400906342517
STARLINK-1042,44747,53.0443,0.0003762,15.47806523,420.5854808332351,425.70276475002356,1 44747U 19074AL  26030.38727562  .00029861  00000+0  57193-3 0  9991,2 44747  53.0443 278.2776 0003762  83.5924 276.5511 15.47806523344138
STARLINK-1043,44748,53.055,0.0002842,15.50946401,412.03128385259697,415.89191269585626,1 44748U 19074AM  26030.28612837  .00038533  00000+0  65823-3 0  9994,2 44748  53.0550  19.4135 0002842  29.2064 330.9103 15.50946401342686
STARLINK-1046,44751,53.0543,0.0005054,15.39837281,443.1408508421946,450.03928496243043,1 44751U 19074AQ  26030.58335647  .00085011  00000+0  20958-2 0  9994,2 44751  53.0543  31.5116 0005054  53.2026  42.1801 15.39837281  5864
STARLINK-1047,44752,53.0728,0.000492,15.3165893,467.4927177768368,474.23213321152343,1 44752U 19074AR  26030.20464087  .00016032  00000+0  52782-3 0  9993,2 44752  53.0728 325.6616 0004920  94.1518 266.0044 15.31658930343442
STARLINK-1048,44753,53.0555,0.0004822,15.43619993,432.1504653031561,438.7214750756075,1 44753U 19074AS  26030.58335647  .00113477  00000+0  24546-2 0  9991,2 44753  53.0555 351.6548 0004822  86.5916 151.2497 15.43619993  5678
STARLINK-1053,44758,53.0324,0.0002921,15.77457482,335.6855305016834,339.6088916377903,1 44758U 19074AX  26030.58335647  .00147731  00000+0  86248-3 0  9994,2 44758  53.0324 275.7599 0002921 143.1479 351.0534 15.77457482  5976
STARLINK-1060,44765,53.0413,0.0002083,16.01532437,268.78948614306137,271.55917264288655,1 44765U 19074BE  26030.05812540  .00503508  12385-3  88289-3 0  9994,2 44765  53.0413 317.7817 0002083 158.7680 201.3437 16.01532437343514
STARLINK-1063,44768,53.1555,0.0001609,15.29368076,476.5970662572727,478.8032746587269,1 44768U 19074BH  26030.58335647 -.00005565  00000+0 -18059-3 0  9990,2 44768  53.1555  36.3682 0001609  66.3137 171.8700 15.29368076  5832
STARLINK-1067,44771,53.0542,0.0005489,15.47504497,420.2953211062577,427.76273897403644,1 44771U 19074BL  26030.58335647  .00122493  00000+0  23164-2 0  9994,2 44771  53.0542  27.8372 0005489  72.4297 213.8775 15.47504497  5925
STARLINK-1068,44772,53.053,0.000302,15.54439304,401.73485350640567,405.8311331823852,1 44772U 19074BM  26030.58335647  .00130546  00000+0  19273-2 0  9999,2 44772  53.0530   5.2508 0003020  88.9451 121.1022 15.54439304  5835
STARLINK-1112,44925,53.0405,0.0002466,15.82726049,321.0828593163242,324.3877295319353,1 44925U 20001M   26030.58335647  .00330704  00000+0  14824-2 0  9996,2 44925  53.0405  76.3968 0002466 347.2742  61.2093 15.82726049  6022
STARLINK-1114,44927,53.0517,0.0004317,15.43831963,431.87113115958255,437.75343156911276,1 44927U 20001P   26030.58335647  .00111399  00000+0  23934-2 0  9997,2 44927  53.0517 151.3721 0004317 341.7571 143.2217 15.43831963  5763
STARLINK-1123,44930,53.054,0.0001259,15.06399834,546.3401652569182,548.0839681519146,1 44930U 20001S   26030.30850956  .00000791  00000+0  72011-4 0  9991,2 44930  53.0540 158.9194 0001259  96.4561 263.6571 15.06399834334068
STARLINK-1144,44933,53.032,0.0007141,16.00419921,268.50521856155046,278.00473658392,1 44933U 20001V   26030.42855588  .00511229  12561-3  95347-3 0  9991,2 44933  53.0320  47.2798 0007141  36.0144 324.1365 16.00419921336937
STARLINK-1094,44941,53.155,0.000145,15.29334266,476.8071033834749,478.7953254656577,1 44941U 20001AD  26030.58335647  .00022770  00000+0  79952-3 0  9999,2 44941  53.1550 136.5538 0001450  85.3936 161.3142 15.29334266  5631
STARLINK-1122,44949,53.1559,0.0001227,15.29346366,476.92383296951084,478.60627133310845,1 44949U 20001AM  26030.58335647  .00005211  00000+0  19285-3 0  9991,2 44949  53.1559 136.5426 0001227  82.7342  49.2391 15.29346366  5788
STARLINK-1080,44961,53.0539,0.0006285,15.42315459,434.9927587980292,443.562248829322,1 44961U 20001AZ  26030.49830247  .00083838  00000+0  19039-2 0  9998,2 44961  53.0539 109.8856 0006285 349.7347  10.3529 15.42315459334779
STARLINK-1090,44968,53.0553,0.0001457,15.06392496,546.2255300771621,548.243583348788,1 44968U 20001BG  26030.47806725 -.00003945  00000+0 -24615-3 0  9997,2 44968  53.0553 118.1631 0001457 105.8753 254.2396 15.06392496334658
STARLINK-1132,45044,53.1598,0.000234,15.37770598,451.10499915249056,454.3018324670893,1 45044U 20006A   26030.39155203  .00106448  00000+0  27979-2 0  9992,2 45044  53.1598  74.7890 0002340  65.4689 294.6558 15.37770598331022
STARLINK-1131,45047,53.1194,0.0001724,15.21371239,500.51747316909405,502.8896421933823,1 45047U 20006D   26030.58335647  .01748152  00000+0  70325-1 0  9995,2 45047  53.1194  97.7796 0001724  75.1473  14.6598 15.21371239  5834
STARLINK-1134,45048,53.0355,0.0005564,15.38471324,446.82957548463855,454.42862640176827,1 45048U 20006E   26030.37181700  .00093783  00000+0  24137-2 0  9995,2 45048  53.0355  59.8838 0005564  58.6830 301.4717 15.38471324331238
STARLINK-1156,45054,53.0922,0.0001533,15.15703767,517.7855033854376,519.9001173953038,1 45054U 20006L   26030.58335647  .01387694  00000+0  66079-1 0  9994,2 45054  53.0922  97.5235 0001533  55.5689  37.5026 15.15703767  5833
STARLINK-1159,45057,53.0478,0.0005067,15.68771247,358.99900426016393,365.82987909115855,1 45057U 20006P   26030.58335647  .00188077  00000+0  15815-2 0  9993,2 45057  53.0478  64.8160 0005067 344.8185  50.0344 15.68771247  5881
STARLINK-1166,45060,53.0546,0.0002214,15.39961963,444.7107769138811,447.7326029417809,1 45060U 20006S   26030.48780857  .00076538  00000+0  18828-2 0  9998,2 45060  53.0546  94.0237 0002214  28.6624 331.4501 15.39961963330760
STARLINK-1169,45061,53.0944,7.67e-05,15.15863973,517.8278967322276,518.8858188900149,1 45061U 20006T   26030.58335647  .01146880  00000+0  54493-1 0  9999,2 45061  53.0944  97.4684 0000767  93.9757 209.4959 15.15863973  5833
STARLINK-1171,45062,53.0495,0.0005586,15.49536705,414.2840292395749,421.8767633146954,1 45062U 20006U   26030.58335647  .00192752  00000+0  33604-2 0  9990,2 45062  53.0495  73.4001 0005586 267.1491 162.5079 15.49536705  5891
STARLINK-1133,45064,53.1593,0.0001361,15.30138175,474.46690759949706,476.3324402821436,1 45064U 20006W   26030.58335647  .00075153  00000+0  25288-2 0  9996,2 45064  53.1593  74.8051 0001361  73.3510 267.0922 15.30138175  5830
STARLINK-1167,45071,53.1616,0.0002033,15.29361538,476.32591384947864,479.1135051875681,1 45071U 20006AD  26030.39795132  .00001860  00000+0  76782-4 0  9993,2 45071  53.1616  75.4876 0002033  54.6017 305.5173 15.29361538331014
STARLINK-1168,45072,53.1585,0.0001331,15.2936673,476.79168055578793,478.61670548136954,1 45072U 20006AE  26030.40774693  .00009130  00000+0  32822-3 0  9999,2 45072  53.1585  75.5028 0001331  85.8498 274.2654 15.29366730331014
STARLINK-1172,45074,53.16,0.0001562,15.30198721,474.1483940956923,476.2893824751927,1 45074U 20006AG  26030.49844043  .00006621  00000+0  23549-3 0  9995,2 45074  53.1600  75.2185 0001562  87.1113 273.0067 15.30198721331021
STARLINK-1153,45080,53.1617,0.0001378,15.29373579,476.7389925462048,478.62845673791617,1 45080U 20006AN  26030.51305834  .00007333  00000+0  26606-3 0  9993,2 45080  53.1617  74.8705 0001378  92.4380 267.6778 15.29373579331032
STARLINK-1151,45081,53.0522,0.0009739,15.51168343,406.6995109040936,419.9278985867959,1 45081U 20006AP  26030.58335647  .00161821  00000+0  26715-2 0  9999,2 45081  53.0522  64.5444 0009739  10.5791  67.8661 15.51168343  5955
STARLINK-1185,45087,53.0545,0.0001289,15.06985653,544.5247510320341,546.3096433040637,1 45087U 20006AV  26030.39490485  .00212020  00000+0  13614-1 0  9997,2 45087  53.0545  58.5293 0001289  60.1886 299.9231 15.06985653331256
STARLINK-1183,45088,53.0536,0.0002083,15.0639335,545.7893849554221,548.674493655536,1 45088U 20006AW  26030.48360570  .00001649  00000+0  12959-3 0  9995,2 45088  53.0536  58.1358 0002083 114.0907 246.0301 15.06393350331260
STARLINK-1152,45096,53.0415,0.0005437,15.33791286,460.79271598378455,468.23341366427394,1 45096U 20006BE  26030.27327043  .00100446  00000+0  30005-2 0  9995,2 45096  53.0415  27.0029 0005437  65.9673 294.1896 15.33791286331684
